QIANFAN-1               
1 60379U 24140A   25354.76567120  .00000079  00000+0  10399-3 0  9999
2 60379  88.9768 298.4496 0016702 185.9761 174.1194 13.50979258 68435
QIANFAN-2               
1 60380U 24140B   25354.79464164  .00000073  00000+0  93877-4 0  9995
2 60380  88.9754 298.2849 0012941 155.4481 204.7289 13.50982952 68490
QIANFAN-3               
1 60381U 24140C   25354.80280360  .00000084  00000+0  11209-3 0  9992
2 60381  88.9747 298.4161 0013624 168.6448 191.5013 13.50983525 68406
QIANFAN-4               
1 60382U 24140D   25354.85207111  .00000068  00000+0  87174-4 0  9998
2 60382  88.9772 298.3106 0013078 158.0133 202.1582 13.50979217 68537
QIANFAN-5               
1 60383U 24140E   25354.82750523  .00000067  00000+0  84270-4 0  9999
2 60383  88.9747 298.4389 0014520 180.7807 179.3324 13.50981213 68399
QIANFAN-6               
1 60384U 24140F   25354.84809553  .00000070  00000+0  89390-4 0  9992
2 60384  88.9773 298.1851 0013008 163.9594 196.1971 13.50981553 68590
QIANFAN-7               
1 60385U 24140G   25354.80499705  .00000490  00000+0  19269-3 0  9996
2 60385  88.9788 292.7741 0016249  21.7589 338.4292 14.27659481 71543
QIANFAN-8               
1 60386U 24140H   25354.85637082  .00000063  00000+0  78847-4 0  9998
2 60386  88.9775 298.4219 0016359 167.9510 192.2035 13.50979441 68444
